OSCAR 7 (AO-7)          
1 07530U 74089B   19048.88407322 -.00000043  00000-0  13516-4 0  9997
2 07530 101.7276  17.8645 0011884 219.6608 196.2268 12.53636822 25140
UOSAT 2 (UO-11)         
1 14781U 84021B   19049.13330748  .00000070  00000-0  14722-4 0  9995
2 14781  97.6239  79.4705 0008479   6.0931 354.0385 14.83064128880896
LUSAT (LO-19)           
1 20442U 90005G   19048.86782393 -.00000016  00000-0  10546-4 0  9992
2 20442  98.6369 351.1528 0012403 141.3271 218.8803 14.32917320519017
ITAMSAT (IO-26)         
1 22826U 93061D   19048.90675933 -.00000001  00000-0  17590-4 0  9991
2 22826  98.8870  34.8582 0008668 346.8005  13.2949 14.30384378324633
RADIO ROSTO (RS-15)     
1 23439U 94085A   19048.91468729 -.00000031  00000-0  31658-3 0  9996
2 23439  64.8182 311.4418 0148911 136.3834 296.5175 11.27567705994273
JAS-2 (FO-29)           
1 24278U 96046B   19048.94694406  .00000002  00000-0  38063-4 0  9998
2 24278  98.5185 218.8448 0350204 193.0569 166.1325 13.53089126111222
TECHSAT 1B (GO-32)      
1 25397U 98043D   19048.87661057 -.00000031  00000-0  55846-5 0  9990
2 25397  98.6774 350.5630 0002075  55.3115 304.8259 14.23660301 70683
ISS (ZARYA)             
1 25544U 98067A   19049.26981481  .00001363  00000-0  28661-4 0  9992
2 25544  51.6402 232.5469 0005893  41.3707 322.7418 15.53274119156780
PCSAT (NO-44)           
1 26931U 01043C   19048.89804420 -.00000033  00000-0  19330-4 0  9993
2 26931  67.0522 315.3845 0005375 270.2331  89.8154 14.30532403907693
SAUDISAT 1C (SO-50)     
1 27607U 02058C   19048.49961131 -.00000014  00000-0  18874-4 0  9991
2 27607  64.5545  60.1176 0082026 279.5268  79.6571 14.75520560869026
CUTE-1 (CO-55)          
1 27844U 03031E   19048.92416162  .00000047  00000-0  40962-4 0  9991
2 27844  98.6864  58.9290 0010226  26.6661 333.5041 14.22160509811086
CUBESAT XI-IV (CO-57)   
1 27848U 03031J   19048.95240523  .00000039  00000-0  37525-4 0  9996
2 27848  98.6945  59.4284 0010312  37.1444 323.0445 14.21758114810952
MOZHAYETS 4 (RS-22)     
1 27939U 03042A   19049.09775579  .00000067  00000-0  20630-4 0  9999
2 27939  98.0186 187.4071 0014399  89.6949 270.5889 14.66754101822863
CUBESAT XI-V            
1 28895U 05043F   19048.91549449  .00000074  00000-0  23081-4 0  9990
2 28895  97.9385 195.9253 0017020  17.6528 342.5263 14.63631031709580
CUTE-1.7+APD II (CO-65) 
1 32785U 08021C   19048.86735223  .00000180  00000-0  25071-4 0  9992
2 32785  97.5479  54.2978 0011839 308.0483  51.9666 14.88251032585646
DELFI-C3 (DO-64)        
1 32789U 08021G   19048.69008804  .00001439  00000-0  10096-3 0  9993
2 32789  97.4813 101.9233 0012706 172.7884 187.3528 15.06657983588741
SEEDS II (CO-66)        
1 32791U 08021J   19049.02090574  .00000245  00000-0  30271-4 0  9991
2 32791  97.5301  60.2694 0011845 281.3276  78.6612 14.90735663586131
YUBILEINY (RS-30)       
1 32953U 08025A   19049.07954406  .00000020  00000-0  75656-4 0  9990
2 32953  82.5005 219.7477 0019561  34.9776 325.2580 12.43087463487326
KKS-1 (KISEKI)          
1 33499U 09002H   19048.89136447  .00000078  00000-0  19633-4 0  9994
2 33499  98.3545 243.6912 0008286 225.8990 134.1537 14.75407086540982
SWISSCUBE               
1 35932U 09051B   19048.94386479  .00000100  00000-0  33528-4 0  9995
2 35932  98.5718 211.4772 0007955 168.4379 191.7002 14.56244889499160
BEESAT-1                
1 35933U 09051C   19049.02314125  .00000089  00000-0  30988-4 0  9998
2 35933  98.5753 213.2542 0005913 178.4158 181.7058 14.56339071499329
ITUPSAT1                
1 35935U 09051E   19049.14896392  .00000044  00000-0  21187-4 0  9996
2 35935  98.5864 213.6286 0008258 177.5379 182.5859 14.55504470499103
XIWANG-1 (HOPE-1)       
1 36122U 09072B   19048.73620873 -.00000030  00000-0  30925-4 0  9997
2 36122 100.0728  56.8074 0006794 265.5266  94.5073 13.16348361440969
JUGNU                   
1 37839U 11058B   19049.02261545  .00000307  00000-0  21743-4 0  9994
2 37839  19.9623 346.5269 0019050  77.3035   7.2011 14.12641803380177
SRMSAT                  
1 37841U 11058D   19049.03108417  .00000279  00000-0  83824-5 0  9993
2 37841  19.9731  40.7512 0011669 311.9001  87.1164 14.10624299379635
M-CUBED & EXP-1 PRIME   
1 37855U 11061F   19048.55911087  .00000787  00000-0  47467-4 0  9999
2 37855 101.7274 241.8857 0174423  75.7383 286.3130 15.05140985398080
STRAND-1                
1 39090U 13009E   19049.16589499  .00000035  00000-0  27472-4 0  9992
2 39090  98.4993 257.0556 0008114 289.8645  70.1666 14.35071165313108
SOMP                    
1 39134U 13015E   19048.82471995  .00001019  00000-0  56600-4 0  9999
2 39134  64.8630  51.9217 0019393 321.8056  38.1696 15.19818227322222
BEESAT-3                
1 39135U 13015F   19049.19401071  .00000692  00000-0  44452-4 0  9997
2 39135  64.8701  67.3668 0010065 276.6786  83.3195 15.17209611321962
BEESAT-2                
1 39136U 13015G   19048.46113876  .00000784  00000-0  49799-4 0  9991
2 39136  64.8688  73.1882 0010708 287.8590  72.1367 15.16641169321392
ZACUBE-1 (TSHEPISOSAT)  
1 39417U 13066B   19049.04368786  .00000198  00000-0  31134-4 0  9999
2 39417  97.5698  69.2811 0060392  70.1339 290.6370 14.81055621283182
GOMX-1                  
1 39430U 13066Q   19049.14363296  .00000161  00000-0  38734-4 0  9999
2 39430  97.7300  13.7493 0149909 274.6112  83.7982 14.59198619279029
CUBEBUG-2 (LO-74)       
1 39440U 13066AA  19048.99902669  .00000164  00000-0  29675-4 0  9992
2 39440  97.6002  54.5812 0081693 116.6219 244.3390 14.75793586282174
FUNCUBE-1 (AO-73)       
1 39444U 13066AE  19048.63766705  .00000258  00000-0  37993-4 0  9992
2 39444  97.5691  70.7181 0059469  65.9833 294.7591 14.81861894282003
UWE-3                   
1 39446U 13066AG  19049.00683128  .00000180  00000-0  30339-4 0  9994
2 39446  97.5837  61.4409 0071603  93.8449 267.0953 14.78328502281435
SPROUT                  
1 39770U 14029E   19049.20208713  .00000655  00000-0  78877-4 0  9995
2 39770  97.8788 153.3557 0010042 118.2934 241.9303 14.87179947256922
UNISAT-6                
1 40012U 14033C   19048.70275918  .00000157  00000-0  30766-4 0  9998
2 40012  97.7755 280.3909 0059464 127.2610 233.4043 14.73927029250861
DUCHIFAT-1              
1 40021U 14033M   19048.77831001  .00000291  00000-0  35631-4 0  9991
2 40021  97.9221 333.0017 0014422  88.5320 271.7549 14.90523664253538
QB50P1                  
1 40025U 14033R   19048.73176444  .00000215  00000-0  28919-4 0  9991
2 40025  97.9068 328.6149 0013876  96.5510 263.7287 14.88866894252811
NUDT-PHONESAT           
1 40900U 15049B   19049.03795064  .00001823  00000-0  82187-4 0  9993
2 40900  97.4402  59.5847 0011536 245.7113 179.2514 15.22277152189302
ZDPS 2A                 
1 40901U 15049C   19049.14286270  .00000899  00000-0  48149-4 0  9992
2 40901  97.4602  56.7246 0011786 263.6269 160.8277 15.17508463188953
ZDPS 2B                 
1 40902U 15049D   19049.08942501  .00000651  00000-0  36024-4 0  9997
2 40902  97.4533  54.3304 0011912 260.2266 187.4657 15.17283592188924
XW-2A                   
1 40903U 15049E   19049.11041799  .00001681  00000-0  42268-4 0  9992
2 40903  97.3557  91.1108 0012346 216.4497 228.4233 15.41372788191677
KAITUO 1A               
1 40904U 15049F   19049.14813005  .00000390  00000-0  24223-4 0  9990
2 40904  97.4649  53.2441 0012977 265.7407 161.4931 15.15247585188740
2015-049G               
1 40905U 15049G   19049.14291131  .00000348  00000-0  22632-4 0  9996
2 40905  97.4670  50.9439 0013998 260.1543 163.5522 15.14183135188636
XW-2C                   
1 40906U 15049H   19048.97189200  .00000387  00000-0  23886-4 0  9995
2 40906  97.4656  53.0777 0013240 256.5199 160.1122 15.15508978188711
XW-2D                   
1 40907U 15049J   19049.03167427  .00000390  00000-0  23933-4 0  9998
2 40907  97.4632  52.8156 0012586 254.2747 171.7535 15.15683680188732
LILACSAT-2              
1 40908U 15049K   19049.07883868  .00000252  00000-0  17585-4 0  9990
2 40908  97.4753  51.8898 0014266 259.1000 142.1490 15.13702434188562
XW-2F                   
1 40910U 15049M   19048.97010098  .00000744  00000-0  40939-4 0  9993
2 40910  97.4613  54.5155 0013316 247.8698 167.1355 15.17033088188718
XW-2B                   
1 40911U 15049N   19049.05543922  .00000801  00000-0  45611-4 0  9997
2 40911  97.4662  53.4572 0012501 255.6970 151.1096 15.15621599188633
KAITUO 1B               
1 40912U 15049P   19049.18384416  .00001069  00000-0  53771-4 0  9996
2 40912  97.4504  58.1162 0013624 229.8065 188.6190 15.19313265189016
TIANWANG 1C (TW-1C)     
1 40926U 15051B   19049.13472403  .00008902  00000-0  14338-3 0  9991
2 40926  97.1543  95.5710 0010795  95.8294 329.0803 15.53115784191431
TIANWANG 1A (TW-1A)     
1 40928U 15051D   19049.04920449  .00002974  00000-0  76405-4 0  9998
2 40928  97.1602  82.9867 0012315 143.4041 271.3450 15.40004983190601
LAPAN-A2                
1 40931U 15052B   19046.96031485  .00000625  00000-0 -19982-5 0  9994
2 40931   5.9964 211.7987 0012497 217.2601 142.6839 14.76597395183099
E-ST@R-II               
1 41459U 16025D   19049.02014546  .00001421  00000-0  76702-4 0  9996
2 41459  98.1104 129.4731 0169833  44.1981 317.2667 15.05096544154395
AAUSAT 4                
1 41460U 16025E   19049.13969766  .00001572  00000-0  83065-4 0  9990
2 41460  98.1034 130.5580 0160128  37.6201 323.6110 15.06820212154510
NUSAT-1 (FRESCO)        
1 41557U 16033B   19049.21053073  .00000990  00000-0  40238-4 0  9998
2 41557  97.4227 137.4271 0014094  10.5036 349.6494 15.26880327151708
BEESAT-4                
1 41619U 16040W   19049.14498704  .00001093  00000-0  49712-4 0  9992
2 41619  97.3839 113.5399 0013141  88.3598 271.9144 15.22778983135519
CAS-2T & KS-1Q          
1 41847U 16066G   19048.95301451  .00000003  00000-0  11711-4 0  9991
2 41847  98.7232  87.6517 0365230 233.9614 122.7219 14.37957898119644
NAYIF-1 (EO-88)         
1 42017U 17008BX  19049.18777655  .00001215  00000-0  51332-4 0  9996
2 42017  97.4182 117.4627 0005123 222.6133 137.4708 15.25150130111551
LILACSAT-1 (LO-90)      
1 42725U 98067ME  19049.19257088  .00144640  19248-4  38304-3 0  9991
2 42725  51.6301 166.8818 0002841   5.7228  62.3500 15.94393566 99370
MAX VALIER SAT          
1 42778U 17036P   19048.74603153  .00000703  00000-0  33999-4 0  9993
2 42778  97.3716 108.9850 0010855 291.3300  68.6777 15.21770004 91841
RADFXSAT (FOX-1B)       
1 43017U 17073E   19048.79147407  .00000272  00000-0  26983-4 0  9997
2 43017  97.7216 334.9031 0258388 191.7622 167.7482 14.78392067 67391
FOX-1D (AO-92)          
1 43137U 18004AC  19048.82963701  .00000806  00000-0  37116-4 0  9995
2 43137  97.5027 116.8304 0008394 328.9978  31.0762 15.23199542 61099
ES'HAIL 2               
1 43700U 18090A   19048.85742882  .00000129  00000-0  00000-0 0  9990
2 43700   0.0185 132.8169 0001444 209.7033 139.4539  1.00271369   842
FOX-1CLIFF (AO-95)      
1 43770U 18099N   19049.20433593  .00000501  00000-0  51416-4 0  9997
2 43770  97.7584 122.5448 0014952  21.4201 338.7642 14.94678497 11420
ITASAT 1                
1 43786U 18099AE  19049.18457523 -.00000142  00000-0 -76441-5 0  9999
2 43786  97.7598 122.5864 0015498  15.4787 344.6904 14.95062251 11425
JY1SAT (JO-97)          
1 43803U 18099AX  19049.17912053 -.00000171  00000-0 -10261-4 0  9991
2 43803  97.7555 122.5471 0015508  16.4528 343.7192 14.95175731 11414
